STARLINK-5337           
1 55284U 23010R   25228.35946713 -.00002213  00000+0 -17766-3 0  9996
2 55284  69.9995 201.9919 0003155 269.5231  90.5566 14.98345164141716
STARLINK-5332           
1 55285U 23010S   25228.20062051 -.00000588  00000+0 -41438-4 0  9992
2 55285  70.0010 162.4891 0003815 267.4953  92.5769 14.98330603142674
STARLINK-5338           
1 55286U 23010T   25228.30918141  .00001109  00000+0  10070-3 0  9999
2 55286  70.0004 182.3546 0003393 260.2718  99.8058 14.98345169142200
STARLINK-5341           
1 55287U 23010U   25228.25050278  .00005756  00000+0  48920-3 0  9999
2 55287  70.0000 162.5892 0003091 261.1695  98.9114 14.98374249142675
STARLINK-5311           
1 55288U 23010V   25228.16330495  .00000342  00000+0  36471-4 0  9997
2 55288  69.9996 182.6462 0003297 269.5190  90.5591 14.98330298142182
STARLINK-5320           
1 55289U 23010W   25228.31334123  .00002966  00000+0  25616-3 0  9999
2 55289  70.0009 182.3693 0002937 265.4387  94.6437 14.98347356142195
STARLINK-5266           
1 55290U 23010X   25228.30500712 -.00000079  00000+0  11529-5 0  9993
2 55290  70.0004 182.3388 0003323 265.7366  94.3414 14.98331126142205
STARLINK-5327           
1 55291U 23010Y   25228.32170342 -.00000024  00000+0  58009-5 0  9992
2 55291  70.0002 182.3958 0002975 270.2953  89.7865 14.98332453142192
STARLINK-5325           
1 55292U 23010Z   25228.29249740  .00001121  00000+0  10174-3 0  9995
2 55292  69.9997 182.2939 0003433 268.1922  91.8844 14.98335715142198
STARLINK-5287           
1 55293U 23010AA  25228.29666068  .00000300  00000+0  32937-4 0  9992
2 55293  69.9995 182.3100 0003061 270.0282  90.0526 14.98328631142193
STARLINK-5286           
1 55294U 23010AB  25227.90051452  .00001052  00000+0  95943-4 0  9996
2 55294  69.9997 203.1989 0003472 270.5183  89.5578 14.98331444141953
STARLINK-5293           
1 55295U 23010AC  25228.34279601  .00000264  00000+0  29928-4 0  9998
2 55295  69.9990 202.3403 0003504 267.3058  92.7700 14.98332095141710
STARLINK-5285           
1 55296U 23010AD  25228.27996503 -.00000592  00000+0 -41808-4 0  9995
2 55296  69.9997 182.2501 0002768 268.3438  91.7404 14.98335102142192
STARLINK-5284           
1 55297U 23010AE  25228.28831008  .00000096  00000+0  15849-4 0  9998
2 55297  69.9998 182.2793 0003363 267.2995  92.7779 14.98331472142197
STARLINK-5270           
1 55299U 23010AG  25227.94198939  .00000380  00000+0  39665-4 0  9999
2 55299  69.9998 183.0788 0002701 264.6354  95.4497 14.98329987143339
STARLINK-5308           
1 55300U 23010AH  25228.27161669 -.00000033  00000+0  50036-5 0  9991
2 55300  70.0002 182.2201 0002923 271.4641  88.6183 14.98327196142192
STARLINK-5321           
1 55302U 23010AK  25228.28413551  .00000394  00000+0  40810-4 0  9991
2 55302  69.9996 182.2622 0003481 265.7249  94.3513 14.98332670142206
