[{"OBJECT_NAME":"STARLINK-5337","OBJECT_ID":"2023-010R","EPOCH":"2025-08-16T08:37:37.960032","MEAN_MOTION":14.98345164,"ECCENTRICITY":0.0003155,"INCLINATION":69.9995,"RA_OF_ASC_NODE":201.9919,"ARG_OF_PERICENTER":269.5231,"MEAN_ANOMALY":90.5566,"EPHEMERIS_TYPE":0,"CLASSIFICATION_TYPE":"U","NORAD_CAT_ID":55284,"ELEMENT_SET_NO":999,"REV_AT_EPOCH":14171,"BSTAR":-0.00017766,"MEAN_MOTION_DOT":-2.213e-5,"MEAN_MOTION_DDOT":0},{"OBJECT_NAME":"STARLINK-5332","OBJECT_ID":"2023-010S","EPOCH":"2025-08-16T04:48:53.612064","MEAN_MOTION":14.98330603,"ECCENTRICITY":0.0003815,"INCLINATION":70.001,"RA_OF_ASC_NODE":162.4891,"ARG_OF_PERICENTER":267.4953,"MEAN_ANOMALY":92.5769,"EPHEMERIS_TYPE":0,"CLASSIFICATION_TYPE":"U","NORAD_CAT_ID":55285,"ELEMENT_SET_NO":999,"REV_AT_EPOCH":14267,"BSTAR":-4.1438e-5,"MEAN_MOTION_DOT":-5.88e-6,"MEAN_MOTION_DDOT":0},{"OBJECT_NAME":"STARLINK-5338","OBJECT_ID":"2023-010T","EPOCH":"2025-08-16T07:25:13.273824","MEAN_MOTION":14.98345169,"ECCENTRICITY":0.0003393,"INCLINATION":70.0004,"RA_OF_ASC_NODE":182.3546,"ARG_OF_PERICENTER":260.2718,"MEAN_ANOMALY":99.8058,"EPHEMERIS_TYPE":0,"CLASSIFICATION_TYPE":"U","NORAD_CAT_ID":55286,"ELEMENT_SET_NO":999,"REV_AT_EPOCH":14220,"BSTAR":0.0001007,"MEAN_MOTION_DOT":1.109e-5,"MEAN_MOTION_DDOT":0},{"OBJECT_NAME":"STARLINK-5341","OBJECT_ID":"2023-010U","EPOCH":"2025-08-16T06:00:43.440192","MEAN_MOTION":14.98374249,"ECCENTRICITY":0.0003091,"INCLINATION":70,"RA_OF_ASC_NODE":162.5892,"ARG_OF_PERICENTER":261.1695,"MEAN_ANOMALY":98.9114,"EPHEMERIS_TYPE":0,"CLASSIFICATION_TYPE":"U","NORAD_CAT_ID":55287,"ELEMENT_SET_NO":999,"REV_AT_EPOCH":14267,"BSTAR":0.0004892,"MEAN_MOTION_DOT":5.756e-5,"MEAN_MOTION_DDOT":0},{"OBJECT_NAME":"STARLINK-5311","OBJECT_ID":"2023-010V","EPOCH":"2025-08-16T03:55:09.547680","MEAN_MOTION":14.98330298,"ECCENTRICITY":0.0003297,"INCLINATION":69.9996,"RA_OF_ASC_NODE":182.6462,"ARG_OF_PERICENTER":269.519,"MEAN_ANOMALY":90.5591,"EPHEMERIS_TYPE":0,"CLASSIFICATION_TYPE":"U","NORAD_CAT_ID":55288,"ELEMENT_SET_NO":999,"REV_AT_EPOCH":14218,"BSTAR":3.6471e-5,"MEAN_MOTION_DOT":3.42e-6,"MEAN_MOTION_DDOT":0},{"OBJECT_NAME":"STARLINK-5320","OBJECT_ID":"2023-010W","EPOCH":"2025-08-16T07:31:12.682272","MEAN_MOTION":14.98347356,"ECCENTRICITY":0.0002937,"INCLINATION":70.0009,"RA_OF_ASC_NODE":182.3693,"ARG_OF_PERICENTER":265.4387,"MEAN_ANOMALY":94.6437,"EPHEMERIS_TYPE":0,"CLASSIFICATION_TYPE":"U","NORAD_CAT_ID":55289,"ELEMENT_SET_NO":999,"REV_AT_EPOCH":14219,"BSTAR":0.00025616,"MEAN_MOTION_DOT":2.966e-5,"MEAN_MOTION_DDOT":0},{"OBJECT_NAME":"STARLINK-5266","OBJECT_ID":"2023-010X","EPOCH":"2025-08-16T07:19:12.615168","MEAN_MOTION":14.98331126,"ECCENTRICITY":0.0003323,"INCLINATION":70.0004,"RA_OF_ASC_NODE":182.3388,"ARG_OF_PERICENTER":265.7366,"MEAN_ANOMALY":94.3414,"EPHEMERIS_TYPE":0,"CLASSIFICATION_TYPE":"U","NORAD_CAT_ID":55290,"ELEMENT_SET_NO":999,"REV_AT_EPOCH":14220,"BSTAR":1.1529e-6,"MEAN_MOTION_DOT":-7.9e-7,"MEAN_MOTION_DDOT":0},{"OBJECT_NAME":"STARLINK-5327","OBJECT_ID":"2023-010Y","EPOCH":"2025-08-16T07:43:15.175488","MEAN_MOTION":14.98332453,"ECCENTRICITY":0.0002975,"INCLINATION":70.0002,"RA_OF_ASC_NODE":182.3958,"ARG_OF_PERICENTER":270.2953,"MEAN_ANOMALY":89.7865,"EPHEMERIS_TYPE":0,"CLASSIFICATION_TYPE":"U","NORAD_CAT_ID":55291,"ELEMENT_SET_NO":999,"REV_AT_EPOCH":14219,"BSTAR":5.8009e-6,"MEAN_MOTION_DOT":-2.4e-7,"MEAN_MOTION_DDOT":0},{"OBJECT_NAME":"STARLINK-5325","OBJECT_ID":"2023-010Z","EPOCH":"2025-08-16T07:01:11.775360","MEAN_MOTION":14.98335715,"ECCENTRICITY":0.0003433,"INCLINATION":69.9997,"RA_OF_ASC_NODE":182.2939,"ARG_OF_PERICENTER":268.1922,"MEAN_ANOMALY":91.8844,"EPHEMERIS_TYPE":0,"CLASSIFICATION_TYPE":"U","NORAD_CAT_ID":55292,"ELEMENT_SET_NO":999,"REV_AT_EPOCH":14219,"BSTAR":0.00010174,"MEAN_MOTION_DOT":1.121e-5,"MEAN_MOTION_DDOT":0},{"OBJECT_NAME":"STARLINK-5287","OBJECT_ID":"2023-010AA","EPOCH":"2025-08-16T07:07:11.482752","MEAN_MOTION":14.98328631,"ECCENTRICITY":0.0003061,"INCLINATION":69.9995,"RA_OF_ASC_NODE":182.31,"ARG_OF_PERICENTER":270.0282,"MEAN_ANOMALY":90.0526,"EPHEMERIS_TYPE":0,"CLASSIFICATION_TYPE":"U","NORAD_CAT_ID":55293,"ELEMENT_SET_NO":999,"REV_AT_EPOCH":14219,"BSTAR":3.2937e-5,"MEAN_MOTION_DOT":3.0e-6,"MEAN_MOTION_DDOT":0},{"OBJECT_NAME":"STARLINK-5286","OBJECT_ID":"2023-010AB","EPOCH":"2025-08-15T21:36:44.454528","MEAN_MOTION":14.98331444,"ECCENTRICITY":0.0003472,"INCLINATION":69.9997,"RA_OF_ASC_NODE":203.1989,"ARG_OF_PERICENTER":270.5183,"MEAN_ANOMALY":89.5578,"EPHEMERIS_TYPE":0,"CLASSIFICATION_TYPE":"U","NORAD_CAT_ID":55294,"ELEMENT_SET_NO":999,"REV_AT_EPOCH":14195,"BSTAR":9.5943e-5,"MEAN_MOTION_DOT":1.052e-5,"MEAN_MOTION_DDOT":0},{"OBJECT_NAME":"STARLINK-5293","OBJECT_ID":"2023-010AC","EPOCH":"2025-08-16T08:13:37.575264","MEAN_MOTION":14.98332095,"ECCENTRICITY":0.0003504,"INCLINATION":69.999,"RA_OF_ASC_NODE":202.3403,"ARG_OF_PERICENTER":267.3058,"MEAN_ANOMALY":92.77,"EPHEMERIS_TYPE":0,"CLASSIFICATION_TYPE":"U","NORAD_CAT_ID":55295,"ELEMENT_SET_NO":999,"REV_AT_EPOCH":14171,"BSTAR":2.9928e-5,"MEAN_MOTION_DOT":2.64e-6,"MEAN_MOTION_DDOT":0},{"OBJECT_NAME":"STARLINK-5285","OBJECT_ID":"2023-010AD","EPOCH":"2025-08-16T06:43:08.978592","MEAN_MOTION":14.98335102,"ECCENTRICITY":0.0002768,"INCLINATION":69.9997,"RA_OF_ASC_NODE":182.2501,"ARG_OF_PERICENTER":268.3438,"MEAN_ANOMALY":91.7404,"EPHEMERIS_TYPE":0,"CLASSIFICATION_TYPE":"U","NORAD_CAT_ID":55296,"ELEMENT_SET_NO":999,"REV_AT_EPOCH":14219,"BSTAR":-4.1808e-5,"MEAN_MOTION_DOT":-5.92e-6,"MEAN_MOTION_DDOT":0},{"OBJECT_NAME":"STARLINK-5284","OBJECT_ID":"2023-010AE","EPOCH":"2025-08-16T06:55:09.990912","MEAN_MOTION":14.98331472,"ECCENTRICITY":0.0003363,"INCLINATION":69.9998,"RA_OF_ASC_NODE":182.2793,"ARG_OF_PERICENTER":267.2995,"MEAN_ANOMALY":92.7779,"EPHEMERIS_TYPE":0,"CLASSIFICATION_TYPE":"U","NORAD_CAT_ID":55297,"ELEMENT_SET_NO":999,"REV_AT_EPOCH":14219,"BSTAR":1.5849e-5,"MEAN_MOTION_DOT":9.6e-7,"MEAN_MOTION_DDOT":0},{"OBJECT_NAME":"STARLINK-5270","OBJECT_ID":"2023-010AG","EPOCH":"2025-08-15T22:36:27.883296","MEAN_MOTION":14.98329987,"ECCENTRICITY":0.0002701,"INCLINATION":69.9998,"RA_OF_ASC_NODE":183.0788,"ARG_OF_PERICENTER":264.6354,"MEAN_ANOMALY":95.4497,"EPHEMERIS_TYPE":0,"CLASSIFICATION_TYPE":"U","NORAD_CAT_ID":55299,"ELEMENT_SET_NO":999,"REV_AT_EPOCH":14333,"BSTAR":3.9665e-5,"MEAN_MOTION_DOT":3.8e-6,"MEAN_MOTION_DDOT":0},{"OBJECT_NAME":"STARLINK-5308","OBJECT_ID":"2023-010AH","EPOCH":"2025-08-16T06:31:07.682016","MEAN_MOTION":14.98327196,"ECCENTRICITY":0.0002923,"INCLINATION":70.0002,"RA_OF_ASC_NODE":182.2201,"ARG_OF_PERICENTER":271.4641,"MEAN_ANOMALY":88.6183,"EPHEMERIS_TYPE":0,"CLASSIFICATION_TYPE":"U","NORAD_CAT_ID":55300,"ELEMENT_SET_NO":999,"REV_AT_EPOCH":14219,"BSTAR":5.0036e-6,"MEAN_MOTION_DOT":-3.3e-7,"MEAN_MOTION_DDOT":0},{"OBJECT_NAME":"STARLINK-5321","OBJECT_ID":"2023-010AK","EPOCH":"2025-08-16T06:49:09.308064","MEAN_MOTION":14.9833267,"ECCENTRICITY":0.0003481,"INCLINATION":69.9996,"RA_OF_ASC_NODE":182.2622,"ARG_OF_PERICENTER":265.7249,"MEAN_ANOMALY":94.3513,"EPHEMERIS_TYPE":0,"CLASSIFICATION_TYPE":"U","NORAD_CAT_ID":55302,"ELEMENT_SET_NO":999,"REV_AT_EPOCH":14220,"BSTAR":4.081e-5,"MEAN_MOTION_DOT":3.94e-6,"MEAN_MOTION_DDOT":0}]
